     2              NAVIGATION DATA                         RINEX VERSION / TYPE
CCRINEXN V1.6.0 UX  CDDIS               02-AUG-15 15:31     PGM / RUN BY / DATE 
IGS BROADCAST EPHEMERIS FILE                                COMMENT             
    0.7451D-08  0.1490D-07 -0.5960D-07 -0.1192D-06          ION ALPHA           
    0.9216D+05  0.1311D+06 -0.6554D+05 -0.5898D+06          ION BETA            
    0.931322574615D-09 0.799360577730D-14    61440     1856 DELTA-UTC: A0,A1,T,W
    17                                                      LEAP SECONDS        
                                                            END OF HEADER       
25 15  8  1  7 59 44.0-0.199372880161D-04-0.466116034659D-11 0.000000000000D+00
    0.400000000000D+01 0.131437500000D+03 0.430517932800D-08-0.100761821089D+00
    0.682659447193D-05 0.465810054447D-02 0.552088022232D-05 0.515364933395D+04
    0.547184000000D+06 0.763684511185D-07 0.112511104715D+01 0.856816768646D-07
    0.978289518051D+00 0.279656250000D+03 0.758580213956D+00-0.824105755884D-08
    0.306084178206D-09 0.100000000000D+01 0.185500000000D+04 0.000000000000D+00
    0.200000000000D+01 0.000000000000D+00 0.512227416039D-08 0.400000000000D+01
    0.546738000000D+06 0.400000000000D+01 0.000000000000D+00 0.000000000000D+00
32 15  8  1  7 59 44.0-0.845398753882D-04 0.103455022327D-10 0.000000000000D+00
    0.400000000000D+01 0.551875000000D+02 0.511842748876D-08 0.154741848773D+01
    0.274926424027D-05 0.112667023204D-01 0.802427530289D-05 0.515371454048D+04
    0.547184000000D+06 0.782310962677D-07-0.193546972216D+01 0.162050127983D-06
    0.946631141341D+00 0.216187500000D+03 0.844819405891D-01-0.838642075666D-08
    0.607168148133D-09 0.100000000000D+01 0.185500000000D+04 0.000000000000D+00
    0.200000000000D+01 0.000000000000D+00-0.372529029846D-08 0.400000000000D+01
    0.542748000000D+06 0.400000000000D+01 0.000000000000D+00 0.000000000000D+00
 1 15  8  1  8  0  0.0-0.198138877749D-05 0.568434188608D-12 0.000000000000D+00
    0.700000000000D+02-0.108468750000D+03 0.399552357245D-08 0.174581233664D+01
   -0.559911131859D-05 0.452932680491D-02 0.127963721752D-04 0.515367576981D+04
    0.547200000000D+06-0.335276126862D-07-0.305687908040D+01-0.558793544769D-08
    0.963097273256D+00 0.133062500000D+03 0.429475080858D+00-0.782711174491D-08
   -0.335728270144D-10 0.100000000000D+01 0.185500000000D+04 0.000000000000D+00
    0.200000000000D+01 0.000000000000D+00 0.512227416039D-08 0.700000000000D+02
    0.540018000000D+06 0.400000000000D+01 0.000000000000D+00 0.000000000000D+00
 2 15  8  1  8  0  0.0 0.581611879170D-03 0.216004991671D-11 0.000000000000D+00
    0.950000000000D+02-0.103031250000D+03 0.437875382124D-08 0.226217425936D+01
   -0.534392893314D-05 0.146949701011D-01 0.118240714073D-04 0.515361318970D+04
    0.547200000000D+06-0.894069671631D-07-0.309586343633D+01-0.309199094772D-06
    0.941742418757D+00 0.139968750000D+03-0.224543424138D+01-0.787675666996D-08
    0.460733477113D-10 0.000000000000D+00 0.185500000000D+04 0.000000000000D+00
    0.200000000000D+01 0.000000000000D+00-0.204890966415D-07 0.950000000000D+02
    0.540000000000D+06 0.400000000000D+01 0.000000000000D+00 0.000000000000D+00
 3 15  8  1  8  0  0.0 0.127456150949D-04 0.318323145621D-11 0.000000000000D+00
    0.320000000000D+02 0.460000000000D+02 0.479519973932D-08-0.266766421168D+01
    0.224262475967D-05 0.760777504183D-03 0.871159136295D-05 0.515363055038D+04
    0.547200000000D+06 0.428408384323D-07-0.201650042249D+01-0.707805156708D-07
    0.959054251911D+00 0.214593750000D+03-0.252707436981D+01-0.812069540242D-08
    0.749674084078D-09 0.100000000000D+01 0.185500000000D+04 0.000000000000D+00
    0.200000000000D+01 0.000000000000D+00 0.186264514923D-08 0.320000000000D+02
    0.544278000000D+06 0.400000000000D+01 0.000000000000D+00 0.000000000000D+00
 4 15  8  1  8  0  0.0-0.616582110524D-05-0.341060513165D-11 0.000000000000D+00
    0.170000000000D+02-0.123437500000D+03 0.447732935588D-08 0.151661812418D+01
   -0.637955963612D-05 0.116263106465D-01 0.125262886286D-04 0.515368084526D+04
    0.547200000000D+06-0.212341547012D-06-0.308068094481D+01-0.126659870148D-06
    0.940818493827D+00 0.129281250000D+03 0.107960411151D+01-0.817819779762D-08
   -0.342871424828D-10 0.100000000000D+01 0.185500000000D+04 0.000000000000D+00
    0.200000000000D+01 0.000000000000D+00-0.651925802231D-08 0.170000000000D+02
    0.540018000000D+06 0.400000000000D+01 0.000000000000D+00 0.000000000000D+00
 5 15  8  1  8  0  0.0-0.211501494050D-03 0.420641299570D-11 0.000000000000D+00
    0.600000000000D+02 0.563437500000D+02 0.503806699857D-08-0.152582882026D+01
    0.267103314400D-05 0.423438998405D-02 0.806152820587D-05 0.515360762024D+04
    0.547200000000D+06-0.372529029846D-08-0.202441241597D+01-0.633299350738D-07
    0.946256705996D+00 0.211656250000D+03 0.380789813790D+00-0.826820154664D-08
    0.755388607825D-09 0.000000000000D+00 0.185500000000D+04 0.000000000000D+00
    0.200000000000D+01 0.000000000000D+00-0.107102096081D-07 0.600000000000D+02
    0.540000000000D+06 0.400000000000D+01 0.000000000000D+00 0.000000000000D+00
 6 15  8  1  8  0  0.0 0.285911373794D-04 0.795807864051D-11 0.000000000000D+00
    0.112000000000D+03-0.900625000000D+02 0.397159400426D-08-0.221399776301D+01
   -0.457093119621D-05 0.157002010383D-03 0.119730830193D-04 0.515380544472D+04
    0.547200000000D+06 0.316649675369D-07-0.306535740165D+01-0.242143869400D-07
    0.962970821543D+00 0.149156250000D+03 0.278535964308D+01-0.779818196844D-08
    0.803604901941D-10 0.000000000000D+00 0.185500000000D+04 0.000000000000D+00
    0.200000000000D+01 0.000000000000D+00 0.419095158577D-08 0.112000000000D+03
    0.540000000000D+06 0.400000000000D+01 0.000000000000D+00 0.000000000000D+00
 8 15  8  1  8  0  0.0-0.458210706711D-06-0.341060513165D-12 0.000000000000D+00
    0.230000000000D+02-0.738750000000D+02 0.480055710533D-08-0.697910427936D+00
   -0.378675758839D-05 0.135858997237D-02 0.131130218506D-05 0.516402320862D+04
    0.547200000000D+06 0.223517417908D-07 0.216891237746D+01 0.104308128357D-06
    0.959855808133D+00 0.352968750000D+03-0.185014677777D+01-0.857785730219D-08
   -0.271082720255D-09 0.100000000000D+01 0.185500000000D+04 0.000000000000D+00
    0.280000000000D+01 0.630000000000D+02 0.745058059692D-08 0.230000000000D+02
    0.540018000000D+06 0.400000000000D+01 0.000000000000D+00 0.000000000000D+00
 9 15  8  1  8  0  0.0-0.983383506537D-05-0.136424205266D-11 0.000000000000D+00
    0.190000000000D+02-0.307812500000D+02 0.530807824562D-08 0.297411360208D+01
   -0.153295695782D-05 0.419687712565D-03 0.480562448502D-05 0.515375381470D+04
    0.547200000000D+06-0.745058059692D-08-0.973616545163D+00 0.186264514923D-07
    0.956598830227D+00 0.286781250000D+03 0.280720009422D+01-0.844285167866D-08
   -0.266082511976D-09 0.000000000000D+00 0.185500000000D+04 0.000000000000D+00
    0.200000000000D+01 0.000000000000D+00 0.931322574616D-09 0.190000000000D+02
    0.540000000000D+06 0.400000000000D+01 0.000000000000D+00 0.000000000000D+00
10 15  8  1  8  0  0.0-0.184830278158D-03-0.159161572810D-11 0.000000000000D+00
    0.160000000000D+02 0.508125000000D+02 0.513449958680D-08-0.125371151172D+01
    0.292435288429D-05 0.149059243267D-01 0.759586691856D-05 0.515369656563D+04
    0.547200000000D+06 0.290572643280D-06-0.200970444094D+01 0.150874257088D-06
    0.941038586926D+00 0.218250000000D+03 0.941754430778D+00-0.834963351004D-08
    0.723244411747D-09 0.000000000000D+00 0.185500000000D+04 0.000000000000D+00
    0.200000000000D+01 0.630000000000D+02-0.279396772385D-08 0.160000000000D+02
    0.540000000000D+06 0.400000000000D+01 0.000000000000D+00 0.000000000000D+00
11 15  8  1  8  0  0.0-0.595042947680D-03-0.238742359215D-11 0.000000000000D+00
    0.580000000000D+02-0.157750000000D+03 0.584238621598D-08 0.115657570718D+01
   -0.833347439766D-05 0.161003833637D-01 0.875070691109D-05 0.515375720978D+04
    0.547200000000D+06-0.188127160072D-06 0.287101381700D+01-0.253319740295D-06
    0.894139488704D+00 0.181125000000D+03 0.142993055956D+01-0.903180478235D-08
   -0.342871424828D-09 0.100000000000D+01 0.185500000000D+04 0.000000000000D+00
    0.200000000000D+01 0.000000000000D+00-0.121071934700D-07 0.580000000000D+02
    0.540018000000D+06 0.400000000000D+01 0.000000000000D+00 0.000000000000D+00
12 15  8  1  8  0  0.0 0.314976554364D-03 0.341060513165D-11 0.000000000000D+00
    0.101000000000D+03 0.121468750000D+03 0.405838333367D-08 0.562774164729D+00
    0.636279582977D-05 0.555361493025D-02 0.503286719322D-05 0.515363616371D+04
    0.547200000000D+06-0.167638063431D-07 0.117250854254D+01 0.162050127983D-06
    0.989799238163D+00 0.296437500000D+03 0.643320963940D+00-0.807640784338D-08
    0.259296515026D-09 0.100000000000D+01 0.185500000000D+04 0.000000000000D+00
    0.280000000000D+01 0.000000000000D+00-0.125728547573D-07 0.101000000000D+03
    0.540018000000D+06 0.400000000000D+01 0.000000000000D+00 0.000000000000D+00
13 15  8  1  8  0  0.0-0.137182883918D-03-0.329691829393D-11 0.000000000000D+00
    0.113000000000D+03-0.388437500000D+02 0.473341145130D-08 0.188661897273D+01
   -0.209920108318D-05 0.483959994745D-02 0.602751970291D-05 0.515367528915D+04
    0.547200000000D+06 0.316649675369D-07-0.857472172655D+00-0.633299350738D-07
    0.973342581568D+00 0.270187500000D+03 0.209614030612D+01-0.809390857235D-08
   -0.479305679291D-09 0.000000000000D+00 0.185500000000D+04 0.000000000000D+00
    0.200000000000D+01 0.000000000000D+00-0.111758708954D-07 0.113000000000D+03
    0.540000000000D+06 0.400000000000D+01 0.000000000000D+00 0.000000000000D+00
